329P/LINEAR-Catalina,e,21.6922,87.6610,343.5324,5.189381,0.0833740,0.67782685,200.2267,06/28.0/2022,2000,g 13.5,4.0
# From MPEC 2022-K19
330P/Catalina,e,15.7021,293.0875,188.8840,6.624281,0.0578091,0.54852326,123.2805,06/28.0/2022,2000,g 12.0,4.0
# From MPEC 2022-C56
331P/Gibbs,e,9.7384,216.7563,184.3239,3.005200,0.1891882,0.04119044,119.8603,06/28.0/2022,2000,g 12.0,4.0
# From MPEC 2016-K18
332P/Ikeya-Murakami,e,9.3801,3.7865,152.3183,3.088290,0.1816046,0.48935544,56.9568,06/28.0/2022,2000,g 18.0,4.0
# From MPEC 2016-EI8
332P-B/Ikeya-Murakami,e,9.3805,3.8028,152.3711,3.082329,0.1821317,0.48970701,359.9699,03/17.0/2016,2000,g 19.0,4.0
# From MPEC 2016-K18
332P-C/Ikeya-Murakami,e,9.3791,3.7869,152.3096,3.088256,0.1816076,0.48936091,56.9719,06/28.0/2022,2000,g 16.5,4.0
# From MPEC 2016-ED0
332P-D/Ikeya-Murakami,e,9.3761,3.7923,152.4393,3.081138,0.1822373,0.48977814,359.9486,03/17.0/2016,2000,g 19.0,4.0
# From MPEC 2016-ED0
332P-E/Ikeya-Murakami,e,9.3774,3.8228,152.2825,3.079877,0.1823493,0.48922008,359.9889,03/17.0/2016,2000,g 21.0,4.0
# From MPEC 2016-ED0
332P-F/Ikeya-Murakami,e,9.5293,3.4757,152.8203,3.163214,0.1751908,0.49918860,359.8501,03/17.0/2016,2000,g 21.0,4.0
# From MPEC 2016-ED0
332P-G/Ikeya-Murakami,e,9.2523,3.6955,154.4000,3.050519,0.1849880,0.49200362,359.9006,03/19.0/2016,2000,g 19.0,4.0
# From MPC100285
332P-H/Ikeya-Murakami,e,9.3796,3.7866,152.3102,3.088441,0.1815914,0.48939614,56.9018,06/28.0/2022,2000,g 19.0,4.0
# From MPEC 2016-ED0
332P-I/Ikeya-Murakami,e,9.3791,3.8048,152.3297,3.081767,0.1821815,0.48955490,359.9360,03/17.0/2016,2000,g 20.5,2.0
# From MPEC 2016-EI8
332P-J/Ikeya-Murakami,e,9.4296,3.6729,152.7712,3.115165,0.1792596,0.49429435,359.8613,03/17.0/2016,2000,g 20.5,2.0
# From MPEC 2020-L06
333P/LINEAR,e,131.9960,115.6439,25.9851,4.220751,0.1136631,0.73657081,259.3923,06/28.0/2022,2000,g 15.0,4.0
# From MPC115888
334P/NEAT,e,20.4051,90.6145,90.1152,6.837829,0.0551222,0.35064284,101.9436,06/28.0/2022,2000,g 10.5,4.0
# From MPEC 2021-U31
335P/Gibbs,e,7.2934,330.8469,162.3094,3.577603,0.1456518,0.54610902,353.4438,06/28.0/2022,2000,g 17.0,4.0
# From MPC105244
336P/McNaught,e,17.8297,298.2544,308.7337,5.035055,0.0872364,0.44425855,172.1586,06/28.0/2022,2000,g 13.5,4.0
# From MPEC 2022-M88
337P/WISE,e,15.3712,106.0607,161.0348,3.285581,0.1654954,0.49656999,359.4765,06/28.0/2022,2000,g 17.0,4.0
# From MPEC 2022-K19
338P/McNaught,e,25.3863,9.7993,4.4544,3.894939,0.1282192,0.41199415,261.6847,06/28.0/2022,2000,g 12.0,4.0
# From MPC101101
339P/Gibbs,e,5.7332,172.7226,27.4832,3.698637,0.1385611,0.63548815,300.5555,06/28.0/2022,2000,g 17.0,4.0
# From MPC133426
340P/Boattini,e,2.0782,291.6845,35.9580,4.250408,0.1124755,0.28085547,229.8435,06/28.0/2022,2000,g 14.3,4.0
# From MPEC 2022-K19
341P/Gibbs,e,3.7971,29.9684,312.2333,4.291487,0.1108645,0.41576001,245.9186,06/28.0/2022,2000,g 12.5,4.0
# From MPC101101
342P/SOHO,e,11.6664,27.7071,73.2633,3.041742,0.1857892,0.98276444,0.0000,10/19.2910/2021,2000,g  9.0,4.0
# From MPEC 2022-K19
343P/NEAT-LONEOS,e,5.5884,257.1413,137.4366,5.458441,0.0772861,0.58493477,152.6343,06/28.0/2022,2000,g 14.0,4.0
# From MPC109148
344P/Read,e,3.4933,273.1365,140.4074,4.862514,0.0919206,0.42283002,189.6789,06/28.0/2022,2000,g 13.0,4.0
# From MPEC 2022-K19
345P/LINEAR,e,2.7275,154.5156,196.5042,4.036044,0.1215543,0.22147511,263.5129,06/28.0/2022,2000,g 12.0,4.0
# From MPEC 2022-K19
346P/Catalina,e,22.1961,102.4561,335.9531,4.474098,0.1041468,0.50292887,204.1813,06/28.0/2022,2000,g 14.0,4.0
# From MPEC 2022-K19
347P/PANSTARRS,e,11.7533,261.0207,98.4112,3.604541,0.1440221,0.38607825,304.2570,06/28.0/2022,2000,g 15.0,4.0
# From MPEC 2022-ED3
348P/PANSTARRS,e,17.7396,312.9420,135.6646,3.150933,0.1762160,0.30691638,23.8715,06/28.0/2022,2000,g 14.0,4.0
# From MPEC 2022-K19
349P/Lemmon,e,5.4906,331.7488,255.9574,3.575168,0.1458006,0.29849844,257.9965,06/28.0/2022,2000,g 14.0,4.0
# From MPC111775
350P/McNaught,e,7.3620,65.2986,139.7318,4.086412,0.1193138,0.09277589,197.8371,06/28.0/2022,2000,g 14.0,4.0
# From MPC105244
351P/Wiegert-PANSTARRS,e,12.7816,283.4351,352.6868,4.438559,0.1054001,0.29534907,254.3407,06/28.0/2022,2000,g 12.5,4.0
# From MPC110086
352P/Skiff,e,21.0121,28.0151,309.3052,6.642767,0.0575679,0.61807426,105.4088,06/28.0/2022,2000,g 11.5,4.0
# From MPEC 2020-AA5
353P/McNaught,e,28.4161,121.5437,230.4393,4.170757,0.1157129,0.47039174,190.6899,06/28.0/2022,2000,g 14.5,4.0
# From MPC105545
354P/LINEAR,e,5.2551,320.1309,132.8149,2.289847,0.2844423,0.12550566,225.4253,06/28.0/2022,2000,g 15.5,4.0
# From MPEC 2020-AA5
355P/LINEAR-NEAT,e,11.0452,51.4305,336.2868,3.470319,0.1524579,0.50772460,261.8887,06/28.0/2022,2000,g 15.5,2.0
# From MPEC 2022-F14
356P/WISE,e,9.6382,160.7990,226.0135,4.157723,0.1162574,0.35568274,192.0629,06/28.0/2022,2000,g 14.0,4.0
# From MPC114609
357P/Hill,e,6.3149,44.5590,1.3895,4.458622,0.1046895,0.43549351,155.9824,06/28.0/2022,2000,g 15.5,4.0
# From MPEC 2020-HN5
358P/PANSTARRS,e,11.0601,85.7024,299.7696,3.146669,0.1765743,0.23886538,271.5011,06/28.0/2022,2000,g 18.0,4.0
# From MPC110086
359P/LONEOS,e,10.2672,149.7554,200.2316,4.639874,0.0986154,0.32422864,174.5568,06/28.0/2022,2000,g 13.5,4.0
# From MPC108599
360P/WISE,e,24.1121,2.1923,354.1721,3.700752,0.1384424,0.49925841,245.3003,06/28.0/2022,2000,g 19.5,6.0
# From MPC114609
361P/Spacewatch,e,13.9008,203.2549,219.0039,4.936267,0.0898682,0.43871732,130.8489,06/28.0/2022,2000,g 12.0,4.0
# From MPEC 2017-V13
362P/,e,15.5566,192.5478,53.6551,3.970836,0.1245607,0.27890103,266.1196,06/28.0/2022,2000,g 12.9,2.0
# From MPC114609
363P/Lemmon,e,5.4091,146.8847,341.0526,3.563627,0.1465095,0.52083086,232.6908,06/28.0/2022,2000,g 17.5,4.0
# From MPEC 2022-K19
364P/PANSTARRS,e,12.1352,46.1624,212.0178,2.879869,0.2016717,0.72187064,295.4645,06/28.0/2022,2000,g 17.0,2.0
# From MPC111775
365P/PANSTARRS,e,9.8284,86.4995,67.3685,3.164073,0.1751194,0.58108253,277.9972,06/28.0/2022,2000,g 17.0,4.0
# From MPC114610
366P/Spacewatch,e,8.8574,70.7628,153.0775,3.496512,0.1507480,0.34803007,217.0026,06/28.0/2022,2000,g 15.0,4.0
# From MPC112395
367P/Catalina,e,8.4602,58.7210,172.8445,3.507007,0.1500718,0.27983714,220.5336,06/28.0/2022,2000,g 17.5,2.0
# From MPC114610
368P/NEAT,e,15.4811,257.8828,118.8660,5.528479,0.0758221,0.62672483,104.7618,06/28.0/2022,2000,g 14.0,4.0
# From MPC114610
369P/Hill,e,10.3212,47.2904,13.1538,4.382348,0.1074345,0.55507680,145.1603,06/28.0/2022,2000,g 15.0,4.0
# From MPEC 2021-F20
370P/NEAT,e,19.4181,55.0829,356.6877,6.434136,0.0603905,0.61512629,89.2965,06/28.0/2022,2000,g 13.0,4.0
# From MPC114610
371P/LINEAR-Skiff,e,17.3818,67.2608,308.5199,4.180688,0.1153008,0.47703581,156.9484,06/28.0/2022,2000,g 16.0,4.0
# From MPEC 2020-K19
372P/McNaught,e,9.5087,325.8179,27.5251,4.506801,0.1030153,0.15267496,138.3821,06/28.0/2022,2000,g 13.5,4.0
# From MPEC 2021-F20
373P/Rinner,e,13.7674,231.9556,221.0253,3.801739,0.1329629,0.39258413,156.3925,06/28.0/2022,2000,g 14.5,4.0
# From MPC114610
374P/Larson,e,10.7669,7.9150,51.4469,4.971966,0.0889021,0.46309187,112.3435,06/28.0/2022,2000,g 14.0,4.0
# From MPEC 2021-F20
375P/Hill,e,17.3614,359.9525,119.3895,5.551867,0.0753434,0.65869837,96.8326,06/28.0/2022,2000,g 16.0,4.0
# From MPEC 2022-K19
376P/LONEOS,e,1.1788,314.2000,284.6196,5.786423,0.0708091,0.51661696,71.3744,06/28.0/2022,2000,g 12.5,4.0
# From MPEC 2021-N06
377P/Scotti,e,9.0241,226.0657,355.0562,6.706429,0.0567502,0.25171116,40.6342,06/28.0/2022,2000,g  9.5,4.0
# From MPEC 2021-Y10
378P/McNaught,e,19.0481,94.1824,193.7126,6.343311,0.0616922,0.46828848,38.1637,06/28.0/2022,2000,g 12.0,4.0
# From MPC115889
379P/Spacewatch,e,12.4491,183.8326,30.6361,3.512193,0.1497395,0.34242905,158.8881,06/28.0/2022,2000,g 15.0,4.0
# From MPEC 2022-K19
380P/PANSTARRS,e,8.2031,132.4405,86.5509,4.446287,0.1051255,0.33939596,118.4414,06/28.0/2022,2000,g 14.6,4.0
# From MPEC 2021-J28
381P/LINEAR-Spacewatch,e,28.3791,173.7575,173.2510,7.132600,0.0517407,0.68191348,51.9892,06/28.0/2022,2000,g 17.5,2.0
# From MPEC 2022-A21
382P/Larson,e,8.4385,173.7164,168.9456,6.375657,0.0612233,0.30770234,9.0497,06/28.0/2022,2000,g  8.0,4.0
# From MPC118844
383P/Christensen,e,12.3243,207.8325,133.7518,3.546426,0.1475767,0.59954811,143.9587,06/28.0/2022,2000,g 18.0,4.0
# From MPEC 2022-K19
384P/Kowalski,e,7.2845,354.2307,37.6217,2.900345,0.1995399,0.61602223,197.5479,06/28.0/2022,2000,g 19.5,4.0
# From MPEC 2021-F20
385P/Hill,e,16.8325,357.0608,44.3261,4.288395,0.1109844,0.40187967,112.8372,06/28.0/2022,2000,g 13.0,4.0
# From MPEC 2021-L04
386P/PANSTARRS,e,15.2300,134.9426,353.1481,4.054029,0.1207463,0.41625019,81.8586,06/28.0/2022,2000,g 14.5,4.0
# From MPEC 2021-J28
387P/Boattini,e,8.9255,259.2749,162.7815,4.797183,0.0938047,0.73652810,96.1881,06/28.0/2022,2000,g 15.0,4.0
# From MPEC 2021-S45
388P/Gibbs,e,23.8826,37.0438,42.3101,5.241764,0.0821274,0.61840991,87.8882,06/28.0/2022,2000,g 13.0,4.0
# From MPEC 2022-K19
389P/Siding Spring,e,160.0803,218.8687,249.3734,5.631789,0.0737453,0.70432119,67.2316,06/28.0/2022,2000,g 16.0,4.0
# From MPEC 2021-S45
390P/Gibbs,e,18.5613,152.2744,232.3704,5.807739,0.0704196,0.70738294,58.2703,06/28.0/2022,2000,g 12.0,4.0
# From MPEC 2021-F20
391P/Kowalski,e,21.2718,124.7370,187.2550,4.682386,0.0972754,0.12015243,151.5985,06/28.0/2022,2000,g  8.0,4.0
# From MPEC 2021-J28
392P/LINEAR,e,4.9318,24.8855,71.8987,6.141659,0.0647553,0.68296522,52.9783,06/28.0/2022,2000,g 14.5,4.0
# From MPEC 2021-BE3
393P/Spacewatch-Hill,e,16.7878,36.4000,328.6146,4.790456,0.0940024,0.12069082,91.5015,06/28.0/2022,2000,g 11.0,4.0
# From MPEC 2020-KB7
394P/PANSTARRS,e,8.5292,98.1251,54.4933,4.331002,0.1093507,0.36746758,102.9184,06/28.0/2022,2000,g 16.0,2.4
# From MPEC 2022-M21
395P/Catalina-NEAT,e,3.2799,223.3935,90.1747,6.601563,0.0581077,0.38424043,10.4026,06/28.0/2022,2000,g 10.0,4.0
# From MPEC 2020-KB7
396P/,e,5.4364,136.6601,8.4720,6.809782,0.0554631,0.41568635,57.4188,06/28.0/2022,2000,g 12.0,4.0
# From MPEC 2021-O56
